{
  "type": "FeatureCollection",
  "features": [
    {
      "type": "Feature",
      "properties": {
        "norad_id": 39617,
        "name": "ASTRA 5B (EGNOS/PRN 123)",
        "group": "gnss",
        "lat": 0.06953998045855493,
        "lon": 75.21971941071384,
        "alt_km": 35802.77923561509,
        "timestamp": "2025-12-17T21:39:45.932955+00:00",
        "meta_object_name": "ASTRA 5B (EGNOS/PRN 123)",
        "meta_object_id": "2014-011B",
        "meta_epoch": "2025-12-17T13:26:14.406144",
        "meta_mean_motion": 1.00270254,
        "meta_eccentricity": 0.00038591,
        "meta_inclination": 0.0434,
        "meta_ra_of_asc_node": 350.6308,
        "meta_arg_of_pericenter": 268.5135,
        "meta_mean_anomaly": 52.3671,
        "meta_ephemeris_type": 0,
        "meta_classification_type": "U",
        "meta_norad_cat_id": 39617,
        "meta_element_set_no": 999,
        "meta_rev_at_epoch": 4284,
        "meta_bstar": 0,
        "meta_mean_motion_dot": 1.62e-06,
        "meta_mean_motion_ddot": 0,
        "tle_line1": "1 39617U 14011B   25351.55988896  .00000162  00000+0  00000+0 0  9994",
        "tle_line2": "2 39617   0.0434 350.6308 0003859 268.5135  52.3671  1.00270254 42842"
      },
      "geometry": {
        "type": "Point",
        "coordinates": [
          75.21971941071384,
          0.06953998045855493
        ]
      }
    },
    {
      "type": "Feature",
      "properties": {
        "norad_id": 39620,
        "name": "COSMOS 2492 (754)",
        "group": "gnss",
        "lat": 45.15245201364558,
        "lon": 112.67082043230306,
        "alt_km": 19160.921716448353,
        "timestamp": "2025-12-17T21:39:45.932965+00:00",
        "meta_object_name": "COSMOS 2492 (754)",
        "meta_object_id": "2014-012A",
        "meta_epoch": "2025-12-16T07:50:46.447872",
        "meta_mean_motion": 2.13103282,
        "meta_eccentricity": 0.00142536,
        "meta_inclination": 65.4058,
        "meta_ra_of_asc_node": 320.149,
        "meta_arg_of_pericenter": 313.159,
        "meta_mean_anomaly": 46.7158,
        "meta_ephemeris_type": 0,
        "meta_classification_type": "U",
        "meta_norad_cat_id": 39620,
        "meta_element_set_no": 999,
        "meta_rev_at_epoch": 9134,
        "meta_bstar": 0,
        "meta_mean_motion_dot": -6.8e-07,
        "meta_mean_motion_ddot": 0,
        "tle_line1": "1 39620U 14012A   25350.32692648 -.00000068  00000+0  00000+0 0  9996",
        "tle_line2": "2 39620  65.4058 320.1490 0014253 313.1590  46.7158  2.13103282 91346"
      },
      "geometry": {
        "type": "Point",
        "coordinates": [
          112.67082043230306,
          45.15245201364558
        ]
      }
    },
    {
      "type": "Feature",
      "properties": {
        "norad_id": 39635,
        "name": "IRNSS-1B",
        "group": "gnss",
        "lat": -19.625767322889093,
        "lon": 103.06998849006351,
        "alt_km": 35718.7932528049,
        "timestamp": "2025-12-17T21:39:45.932975+00:00",
        "meta_object_name": "IRNSS-1B",
        "meta_object_id": "2014-017A",
        "meta_epoch": "2025-12-16T18:45:22.546080",
        "meta_mean_motion": 1.00269874,
        "meta_eccentricity": 0.00189725,
        "meta_inclination": 29.2588,
        "meta_ra_of_asc_node": 243.5372,
        "meta_arg_of_pericenter": 251.6767,
        "meta_mean_anomaly": 287.2039,
        "meta_ephemeris_type": 0,
        "meta_classification_type": "U",
        "meta_norad_cat_id": 39635,
        "meta_element_set_no": 999,
        "meta_rev_at_epoch": 4296,
        "meta_bstar": 0,
        "meta_mean_motion_dot": 1.41e-06,
        "meta_mean_motion_ddot": 0,
        "tle_line1": "1 39635U 14017A   25350.78151095  .00000141  00000+0  00000+0 0  9994",
        "tle_line2": "2 39635  29.2588 243.5372 0018972 251.6767 287.2039  1.00269874 42968"
      },
      "geometry": {
        "type": "Point",
        "coordinates": [
          103.06998849006351,
          -19.625767322889093
        ]
      }
    },
    {
      "type": "Feature",
      "properties": {
        "norad_id": 39727,
        "name": "LUCH 5V (SDCM/PRN 141)",
        "group": "gnss",
        "lat": 4.531018702584006,
        "lon": 146.31147339536233,
        "alt_km": 35799.74189809969,
        "timestamp": "2025-12-17T21:39:45.932987+00:00",
        "meta_object_name": "LUCH 5V (SDCM/PRN 141)",
        "meta_object_id": "2014-023A",
        "meta_epoch": "2025-12-17T16:05:55.296096",
        "meta_mean_motion": 1.00267844,
        "meta_eccentricity": 0.00043276,
        "meta_inclination": 4.6814,
        "meta_ra_of_asc_node": 71.4933,
        "meta_arg_of_pericenter": 210.7979,
        "meta_mean_anomaly": 140.422,
        "meta_ephemeris_type": 0,
        "meta_classification_type": "U",
        "meta_norad_cat_id": 39727,
        "meta_element_set_no": 999,
        "meta_rev_at_epoch": 4253,
        "meta_bstar": 0,
        "meta_mean_motion_dot": -2.47e-06,
        "meta_mean_motion_ddot": 0,
        "tle_line1": "1 39727U 14023A   25351.67077889 -.00000247  00000+0  00000+0 0  9998",
        "tle_line2": "2 39727   4.6814  71.4933 0004327 210.7979 140.4220  1.00267844 42530"
      },
      "geometry": {
        "type": "Point",
        "coordinates": [
          146.31147339536233,
          4.531018702584006
        ]
      }
    },
    {
      "type": "Feature",
      "properties": {
        "norad_id": 39741,
        "name": "GPS BIIF-6  (PRN 06)",
        "group": "gnss",
        "lat": -43.17308535247261,
        "lon": -59.708655841136945,
        "alt_km": 20086.114367021197,
        "timestamp": "2025-12-17T21:39:45.932997+00:00",
        "meta_object_name": "GPS BIIF-6  (PRN 06)",
        "meta_object_id": "2014-026A",
        "meta_epoch": "2025-12-16T11:34:54.885216",
        "meta_mean_motion": 2.00561186,
        "meta_eccentricity": 0.00392879,
        "meta_inclination": 56.5821,
        "meta_ra_of_asc_node": 338.6307,
        "meta_arg_of_pericenter": 318.9019,
        "meta_mean_anomaly": 40.8126,
        "meta_ephemeris_type": 0,
        "meta_classification_type": "U",
        "meta_norad_cat_id": 39741,
        "meta_element_set_no": 999,
        "meta_rev_at_epoch": 8487,
        "meta_bstar": 0,
        "meta_mean_motion_dot": -8.7e-07,
        "meta_mean_motion_ddot": 0,
        "tle_line1": "1 39741U 14026A   25350.48257969 -.00000087  00000+0  00000+0 0  9996",
        "tle_line2": "2 39741  56.5821 338.6307 0039287 318.9019  40.8126  2.00561186 84870"
      },
      "geometry": {
        "type": "Point",
        "coordinates": [
          -59.708655841136945,
          -43.17308535247261
        ]
      }
    },
    {
      "type": "Feature",
      "properties": {
        "norad_id": 40001,
        "name": "COSMOS 2500 (755)",
        "group": "gnss",
        "lat": -2.939309015294913,
        "lon": -41.509708841916755,
        "alt_km": 19145.71978732171,
        "timestamp": "2025-12-17T21:39:45.933008+00:00",
        "meta_object_name": "COSMOS 2500 (755)",
        "meta_object_id": "2014-032A",
        "meta_epoch": "2025-12-16T23:14:23.843328",
        "meta_mean_motion": 2.13106023,
        "meta_eccentricity": 0.00080797,
        "meta_inclination": 65.3407,
        "meta_ra_of_asc_node": 319.8884,
        "meta_arg_of_pericenter": 219.086,
        "meta_mean_anomaly": 140.8487,
        "meta_ephemeris_type": 0,
        "meta_classification_type": "U",
        "meta_norad_cat_id": 40001,
        "meta_element_set_no": 999,
        "meta_rev_at_epoch": 8957,
        "meta_bstar": 0,
        "meta_mean_motion_dot": -6.8e-07,
        "meta_mean_motion_ddot": 0,
        "tle_line1": "1 40001U 14032A   25350.96833152 -.00000068  00000+0  00000+0 0  9990",
        "tle_line2": "2 40001  65.3407 319.8884 0008079 219.0860 140.8487  2.13106023 89572"
      },
      "geometry": {
        "type": "Point",
        "coordinates": [
          -41.509708841916755,
          -2.939309015294913
        ]
      }
    },
    {
      "type": "Feature",
      "properties": {
        "norad_id": 40105,
        "name": "GPS BIIF-7  (PRN 09)",
        "group": "gnss",
        "lat": -47.08319096536353,
        "lon": -36.05775854918032,
        "alt_km": 20233.67095478641,
        "timestamp": "2025-12-17T21:39:45.933018+00:00",
        "meta_object_name": "GPS BIIF-7  (PRN 09)",
        "meta_object_id": "2014-045A",
        "meta_epoch": "2025-12-15T01:46:50.034144",
        "meta_mean_motion": 2.00572752,
        "meta_eccentricity": 0.00326343,
        "meta_inclination": 55.2306,
        "meta_ra_of_asc_node": 95.8057,
        "meta_arg_of_pericenter": 119.9544,
        "meta_mean_anomaly": 240.3532,
        "meta_ephemeris_type": 0,
        "meta_classification_type": "U",
        "meta_norad_cat_id": 40105,
        "meta_element_set_no": 999,
        "meta_rev_at_epoch": 8238,
        "meta_bstar": 0,
        "meta_mean_motion_dot": -3.6e-07,
        "meta_mean_motion_ddot": 0,
        "tle_line1": "1 40105U 14045A   25349.07419021 -.00000036  00000+0  00000+0 0  9999",
        "tle_line2": "2 40105  55.2306  95.8057 0032634 119.9544 240.3532  2.00572752 82388"
      },
      "geometry": {
        "type": "Point",
        "coordinates": [
          -36.05775854918032,
          -47.08319096536353
        ]
      }
    }
  ]
}